{"fetched_at":"2026-07-24T07:06:06.293Z","source":"https://celestrak.org/NORAD/elements/gp.php?GROUP=kuiper&FORMAT=JSON","constellation":"kuiper","records":[{"OBJECT_NAME":"KUIPER-00500","OBJECT_ID":"2026-095U","EPOCH":"2026-07-23T16:46:33.968928","CLASSIFICATION_TYPE":"U","MEAN_MOTION":14.79942027,"ECCENTRICITY":0.0001473,"INCLINATION":51.9021,"RA_OF_ASC_NODE":89.2025,"ARG_OF_PERICENTER":60.5254,"MEAN_ANOMALY":299.5855,"EPHEMERIS_TYPE":0,"NORAD_CAT_ID":68882,"ELEMENT_SET_NO":999,"REV_AT_EPOCH":1302,"BSTAR":-0.00037159,"MEAN_MOTION_DOT":-0.00003053,"MEAN_MOTION_DDOT":0},{"OBJECT_NAME":"KUIPER-00502","OBJECT_ID":"2026-095V","EPOCH":"2026-07-23T20:00:01.999008","CLASSIFICATION_TYPE":"U","MEAN_MOTION":15.09306935,"ECCENTRICITY":0.0006052,"INCLINATION":51.896,"RA_OF_ASC_NODE":66.4577,"ARG_OF_PERICENTER":65.8359,"MEAN_ANOMALY":127.4746,"EPHEMERIS_TYPE":0,"NORAD_CAT_ID":68883,"ELEMENT_SET_NO":999,"REV_AT_EPOCH":344,"BSTAR":-0.0016157,"MEAN_MOTION_DOT":-0.00026275,"MEAN_MOTION_DDOT":0},{"OBJECT_NAME":"KUIPER-00503","OBJECT_ID":"2026-095W","EPOCH":"2026-07-23T09:32:51.242784","CLASSIFICATION_TYPE":"U","MEAN_MOTION":14.799461,"ECCENTRICITY":0.0000856,"INCLINATION":51.8979,"RA_OF_ASC_NODE":88.023,"ARG_OF_PERICENTER":118.6266,"MEAN_ANOMALY":241.4783,"EPHEMERIS_TYPE":0,"NORAD_CAT_ID":68884,"ELEMENT_SET_NO":999,"REV_AT_EPOCH":1301,"BSTAR":-0.00092522,"MEAN_MOTION_DOT":-0.00007269,"MEAN_MOTION_DDOT":0},{"OBJECT_NAME":"KUIPER-00504","OBJECT_ID":"2026-095X","EPOCH":"2026-07-23T16:38:48.793920","CLASSIFICATION_TYPE":"U","MEAN_MOTION":14.7996218,"ECCENTRICITY":0.0001072,"INCLINATION":51.9027,"RA_OF_ASC_NODE":94.2271,"ARG_OF_PERICENTER":96.4026,"MEAN_ANOMALY":263.7058,"EPHEMERIS_TYPE":0,"NORAD_CAT_ID":68885,"ELEMENT_SET_NO":999,"REV_AT_EPOCH":1295,"BSTAR":0.00048429,"MEAN_MOTION_DOT":0.00003475,"MEAN_MOTION_DDOT":0},{"OBJECT_NAME":"KUIPER-00505","OBJECT_ID":"2026-095Y","EPOCH":"2026-07-22T17:24:19.181664","CLASSIFICATION_TYPE":"U","MEAN_MOTION":14.79938721,"ECCENTRICITY":0.00008931,"INCLINATION":51.9025,"RA_OF_ASC_NODE":88.5118,"ARG_OF_PERICENTER":107.7839,"MEAN_ANOMALY":252.322,"EPHEMERIS_TYPE":0,"NORAD_CAT_ID":68886,"ELEMENT_SET_NO":999,"REV_AT_EPOCH":1294,"BSTAR":-0.00017699214,"MEAN_MOTION_DOT":-0.0000157,"MEAN_MOTION_DDOT":0},{"OBJECT_NAME":"KUIPER-00507","OBJECT_ID":"2026-095Z","EPOCH":"2026-07-23T20:00:01.999008","CLASSIFICATION_TYPE":"U","MEAN_MOTION":14.76433833,"ECCENTRICITY":0.0001503,"INCLINATION":51.9004,"RA_OF_ASC_NODE":73.4317,"ARG_OF_PERICENTER":33.7718,"MEAN_ANOMALY":234.9278,"EPHEMERIS_TYPE":0,"NORAD_CAT_ID":68887,"ELEMENT_SET_NO":999,"REV_AT_EPOCH":392,"BSTAR":-0.0037823,"MEAN_MOTION_DOT":-0.00026656,"MEAN_MOTION_DDOT":0},{"OBJECT_NAME":"KUIPER-00511","OBJECT_ID":"2026-095AA","EPOCH":"2026-07-23T20:00:01.999008","CLASSIFICATION_TYPE":"U","MEAN_MOTION":15.00710799,"ECCENTRICITY":0.0004117,"INCLINATION":51.8965,"RA_OF_ASC_NODE":67.2297,"ARG_OF_PERICENTER":53.9391,"MEAN_ANOMALY":53.9922,"EPHEMERIS_TYPE":0,"NORAD_CAT_ID":68888,"ELEMENT_SET_NO":999,"REV_AT_EPOCH":282,"BSTAR":-0.0073415,"MEAN_MOTION_DOT":-0.00093093,"MEAN_MOTION_DDOT":0},{"OBJECT_NAME":"KUIPER-00512","OBJECT_ID":"2026-095AB","EPOCH":"2026-07-23T16:50:27.578112","CLASSIFICATION_TYPE":"U","MEAN_MOTION":14.79960744,"ECCENTRICITY":0.0000954,"INCLINATION":51.9019,"RA_OF_ASC_NODE":86.6946,"ARG_OF_PERICENTER":113.3014,"MEAN_ANOMALY":246.8049,"EPHEMERIS_TYPE":0,"NORAD_CAT_ID":68889,"ELEMENT_SET_NO":999,"REV_AT_EPOCH":1305,"BSTAR":0.00049159,"MEAN_MOTION_DOT":0.00003531,"MEAN_MOTION_DDOT":0},{"OBJECT_NAME":"KUIPER-00519","OBJECT_ID":"2026-095AC","EPOCH":"2026-07-23T15:28:47.997408","CLASSIFICATION_TYPE":"U","MEAN_MOTION":14.79899795,"ECCENTRICITY":0.0001797,"INCLINATION":51.9044,"RA_OF_ASC_NODE":77.0062,"ARG_OF_PERICENTER":33.5121,"MEAN_ANOMALY":326.5955,"EPHEMERIS_TYPE":0,"NORAD_CAT_ID":68890,"ELEMENT_SET_NO":999,"REV_AT_EPOCH":1318,"BSTAR":0.0031092,"MEAN_MOTION_DOT":0.00023546,"MEAN_MOTION_DDOT":0},{"OBJECT_NAME":"KUIPER-00521","OBJECT_ID":"2026-095AD","EPOCH":"2026-07-23T20:00:01.999008","CLASSIFICATION_TYPE":"U","MEAN_MOTION":14.83674635,"ECCENTRICITY":0.0001544,"INCLINATION":51.9022,"RA_OF_ASC_NODE":69.9216,"ARG_OF_PERICENTER":105.6262,"MEAN_ANOMALY":159.0867,"EPHEMERIS_TYPE":0,"NORAD_CAT_ID":68891,"ELEMENT_SET_NO":999,"REV_AT_EPOCH":589,"BSTAR":-0.0070348,"MEAN_MOTION_DOT":-0.00058395,"MEAN_MOTION_DDOT":0},{"OBJECT_NAME":"KUIPER-00524","OBJECT_ID":"2026-095AE","EPOCH":"2026-07-23T15:33:55.880352","CLASSIFICATION_TYPE":"U","MEAN_MOTION":14.76427192,"ECCENTRICITY":0.0002291,"INCLINATION":51.8991,"RA_OF_ASC_NODE":78.445,"ARG_OF_PERICENTER":125.5013,"MEAN_ANOMALY":234.6161,"EPHEMERIS_TYPE":0,"NORAD_CAT_ID":68892,"ELEMENT_SET_NO":999,"REV_AT_EPOCH":1316,"BSTAR":0.00023255,"MEAN_MOTION_DOT":0.00001417,"MEAN_MOTION_DDOT":0},{"OBJECT_NAME":"KUIPER-00370","OBJECT_ID":"2026-098A","EPOCH":"2026-07-23T20:00:01.999008","CLASSIFICATION_TYPE":"U","MEAN_MOTION":14.9763178,"ECCENTRICITY":0.0010227,"INCLINATION":51.8874,"RA_OF_ASC_NODE":256.4592,"ARG_OF_PERICENTER":293.5441,"MEAN_ANOMALY":115.4266,"EPHEMERIS_TYPE":0,"NORAD_CAT_ID":68919,"ELEMENT_SET_NO":999,"REV_AT_EPOCH":576,"BSTAR":-0.0083823,"MEAN_MOTION_DOT":-0.00098103,"MEAN_MOTION_DDOT":0},{"OBJECT_NAME":"KUIPER-00380","OBJECT_ID":"2026-098B","EPOCH":"2026-07-23T08:05:38.815584","CLASSIFICATION_TYPE":"U","MEAN_MOTION":15.28752218,"ECCENTRICITY":0.0006532,"INCLINATION":51.8757,"RA_OF_ASC_NODE":255.4714,"ARG_OF_PERICENTER":294.6377,"MEAN_ANOMALY":65.3925,"EPHEMERIS_TYPE":0,"NORAD_CAT_ID":68920,"ELEMENT_SET_NO":999,"REV_AT_EPOCH":1287,"BSTAR":0.00044433,"MEAN_MOTION_DOT":0.00012267,"MEAN_MOTION_DDOT":0},{"OBJECT_NAME":"KUIPER-00386","OBJECT_ID":"2026-098C","EPOCH":"2026-07-23T20:00:01.999008","CLASSIFICATION_TYPE":"U","MEAN_MOTION":15.08418661,"ECCENTRICITY":0.0003021,"INCLINATION":51.8903,"RA_OF_ASC_NODE":252.0779,"ARG_OF_PERICENTER":38.9031,"MEAN_ANOMALY":359.1587,"EPHEMERIS_TYPE":0,"NORAD_CAT_ID":68921,"ELEMENT_SET_NO":999,"REV_AT_EPOCH":538,"BSTAR":-0.12818,"MEAN_MOTION_DOT":-0.01833676,"MEAN_MOTION_DDOT":0},{"OBJECT_NAME":"KUIPER-00388","OBJECT_ID":"2026-098D","EPOCH":"2026-07-23T20:00:01.999008","CLASSIFICATION_TYPE":"U","MEAN_MOTION":14.76432624,"ECCENTRICITY":0.0001506,"INCLINATION":51.8998,"RA_OF_ASC_NODE":261.0061,"ARG_OF_PERICENTER":72.3094,"MEAN_ANOMALY":60.3407,"EPHEMERIS_TYPE":0,"NORAD_CAT_ID":68922,"ELEMENT_SET_NO":999,"REV_AT_EPOCH":523,"BSTAR":-0.0047195,"MEAN_MOTION_DOT":-0.00033174,"MEAN_MOTION_DDOT":0},{"OBJECT_NAME":"KUIPER-00405","OBJECT_ID":"2026-098E","EPOCH":"2026-07-23T20:00:01.999008","CLASSIFICATION_TYPE":"U","MEAN_MOTION":14.77888352,"ECCENTRICITY":0.0002209,"INCLINATION":51.9012,"RA_OF_ASC_NODE":258.5012,"ARG_OF_PERICENTER":329.8543,"MEAN_ANOMALY":343.919,"EPHEMERIS_TYPE":0,"NORAD_CAT_ID":68923,"ELEMENT_SET_NO":999,"REV_AT_EPOCH":496,"BSTAR":-0.010854,"MEAN_MOTION_DOT":-0.00078136,"MEAN_MOTION_DDOT":0}]}
