KUIPER-00500            
1 68882U 26095U   26204.69900427 -.00003053  00000+0 -37159-3 0  9995
2 68882  51.9021  89.2025 0001473  60.5254 299.5855 14.79942027 13029
KUIPER-00502            
1 68883U 26095V   26204.83335647 -.00026275  00000+0 -16157-2 0  9993
2 68883  51.8960  66.4577 0006052  65.8359 127.4746 15.09306935  3441
KUIPER-00503            
1 68884U 26095W   26204.39781531 -.00007269  00000+0 -92522-3 0  9995
2 68884  51.8979  88.0230 0000856 118.6266 241.4783 14.79946100 13010
KUIPER-00504            
1 68885U 26095X   26204.69362030  .00003475  00000+0  48429-3 0  9998
2 68885  51.9027  94.2271 0001072  96.4026 263.7058 14.79962180 12958
KUIPER-00505            
1 68886U 26095Y   26203.72522201 -.00001570  00000+0 -17699-3 0  9991
2 68886  51.9025  88.5118 0000893 107.7839 252.3220 14.79938721 12949
KUIPER-00507            
1 68887U 26095Z   26204.83335647 -.00026656  00000+0 -37823-2 0  9993
2 68887  51.9004  73.4317 0001503  33.7718 234.9278 14.76433833  3922
KUIPER-00511            
1 68888U 26095AA  26204.83335647 -.00093093  00000+0 -73415-2 0  9990
2 68888  51.8965  67.2297 0004117  53.9391  53.9922 15.00710799  2821
KUIPER-00512            
1 68889U 26095AB  26204.70170808  .00003531  00000+0  49159-3 0  9998
2 68889  51.9019  86.6946 0000954 113.3014 246.8049 14.79960744 13059
KUIPER-00519            
1 68890U 26095AC  26204.64499997  .00023546  00000+0  31092-2 0  9990
2 68890  51.9044  77.0062 0001797  33.5121 326.5955 14.79899795 13183
KUIPER-00521            
1 68891U 26095AD  26204.83335647 -.00058395  00000+0 -70348-2 0  9992
2 68891  51.9022  69.9216 0001544 105.6262 159.0867 14.83674635  5897
KUIPER-00524            
1 68892U 26095AE  26204.64856343  .00001417  00000+0  23255-3 0  9990
2 68892  51.8991  78.4450 0002291 125.5013 234.6161 14.76427192 13164
KUIPER-00370            
1 68919U 26098A   26204.83335647 -.00098103  00000+0 -83823-2 0  9999
2 68919  51.8874 256.4592 0010227 293.5441 115.4266 14.97631780  5760
KUIPER-00380            
1 68920U 26098B   26204.33725481  .00012267  00000+0  44433-3 0  9995
2 68920  51.8757 255.4714 0006532 294.6377  65.3925 15.28752218 12871
KUIPER-00386            
1 68921U 26098C   26204.83335647 -.01833676  00000+0 -12818+0 0  9998
2 68921  51.8903 252.0779 0003021  38.9031 359.1587 15.08418661  5380
KUIPER-00388            
1 68922U 26098D   26204.83335647 -.00033174  00000+0 -47195-2 0  9992
2 68922  51.8998 261.0061 0001506  72.3094  60.3407 14.76432624  5231
KUIPER-00405            
1 68923U 26098E   26204.83335647 -.00078136  00000+0 -10854-1 0  9991
2 68923  51.9012 258.5012 0002209 329.8543 343.9190 14.77888352  4969
